COSMOS 2251 DEB         
1 34577U 93036VP  24153.56827432  .00014622  00000+0  20281-2 0  9998
2 34577  74.0324 232.2806 0020774 148.9110 211.3299 14.77812848811057
COSMOS 2251 DEB         
1 34579U 93036VR  24152.14238660  .00001641  00000+0  50613-3 0  9992
2 34579  74.0530 185.1486 0027935  31.2330  24.8110 14.41963572800837
COSMOS 2251 DEB         
1 34582U 93036VU  24153.29664279  .00002267  00000+0  73079-3 0  9998
2 34582  74.0212 229.6617 0050905 115.7727 244.8693 14.39059887798860
COSMOS 2251 DEB         
1 34588U 93036WA  24153.62974741  .00001420  00000+0  46800-3 0  9991
2 34588  74.0438 222.0598 0018938  52.3309  70.7934 14.38949172798984
COSMOS 2251 DEB         
1 34589U 93036WB  24151.45991872  .00000804  00000+0  57523-3 0  9994
2 34589  73.9258 291.2425 0255246 345.5481  70.2318 13.84395530769390
COSMOS 2251 DEB         
1 34590U 93036WC  24152.88694414  .00000946  00000+0  22648-3 0  9993
2 34590  74.0436 300.6286 0071447 212.5338 303.6276 14.53460310809820
COSMOS 2251 DEB         
1 34609U 93036WE  24153.15299243  .00002534  00000+0  11191-2 0  9991
2 34609  73.7366  46.5977 0149762 355.3654 155.4439 14.18012749786889
COSMOS 2251 DEB         
1 34610U 93036WF  24151.43944235  .00003564  00000+0  20115-2 0  9990
2 34610  74.0207 162.8069 0192346  60.6530 301.3664 14.01693253776785
COSMOS 2251 DEB         
1 34611U 93036WG  24153.31498427  .00008676  00000+0  19591-2 0  9992
2 34611  74.0594  92.6790 0034236 280.2745 247.7140 14.56026572802086
COSMOS 2251 DEB         
1 34613U 93036WJ  24152.18087844  .00005390  00000+0  23899-2 0  9991
2 34613  73.9687 211.4031 0119276 166.5313 226.0940 14.19554566784875
COSMOS 2251 DEB         
1 34614U 93036WK  24153.32953576  .00005177  00000+0  27174-2 0  9996
2 34614  73.8818 258.2652 0241849   4.5575  55.8930 14.00507099768825
COSMOS 2251 DEB         
1 34615U 93036WL  24153.33797514  .00000635  00000+0  60956-3 0  9996
2 34615  74.0037 110.3438 0403900 132.0269  18.9590 13.50759787752571
COSMOS 2251 DEB         
1 34619U 93036WQ  24153.18197308  .00001371  00000+0  26326-3 0  9999
2 34619  74.0458 193.0378 0096446  71.4029 289.7583 14.61763873811138
COSMOS 2251 DEB         
1 34620U 93036WR  24152.74125029  .00012550  00000+0  43808-2 0  9997
2 34620  74.0603 175.6650 0109189 350.4182   9.4883 14.31998118787995
COSMOS 2251 DEB         
1 34622U 93036WT  24153.21374642  .00001740  00000+0  80823-3 0  9997
2 34622  74.0432 228.0590 0112987  84.5012 309.1991 14.18016351785162
COSMOS 2251 DEB         
1 34626U 93036WX  24153.55529626  .00005492  00000+0  10961-2 0  9995
2 34626  74.0545 323.0066 0034712 197.5551 224.0249 14.61791181809412
COSMOS 2251 DEB         
1 34634U 93036XF  24153.58488782  .00001418  00000+0  35131-3 0  9995
2 34634  74.0535  11.0125 0048879 258.4872 130.1605 14.52184199806541
COSMOS 2251 DEB         
1 34635U 93036XG  24153.24654104  .00005246  00000+0  11793-2 0  9992
2 34635  74.0514  62.4347 0039848 270.6834 253.8603 14.56234260650384
COSMOS 2251 DEB         
1 34637U 93036XJ  24153.07839931  .00004440  00000+0  10740-2 0  9994
2 34637  74.0530  82.5052 0059863 292.5858  78.1755 14.52268676803782
COSMOS 2251 DEB         
1 34638U 93036XK  24153.60534830  .00048036  00000+0  46593-2 0  9998
2 34638  74.0297 330.9507 0014716 135.8410 320.3925 14.92337068807106
COSMOS 2251 DEB         
1 34639U 93036XL  24152.97540833  .00044110  00000+0  45248-2 0  9993
2 34639  74.0198  19.0844 0029570 196.3869 225.4908 14.89877366804682
COSMOS 2251 DEB         
1 34641U 93036XN  24153.17995122  .00003593  00000+0  10348-2 0  9997
2 34641  73.8424  63.2258 0017782 101.2294  49.0495 14.45016084801517
COSMOS 2251 DEB         
1 34642U 93036XP  24153.53782701  .00002767  00000+0  17065-2 0  9990
2 34642  74.0062 225.5158 0217249 167.7278 258.0352 13.94873836774837
COSMOS 2251 DEB         
1 34671U 93036XR  24153.30993149  .00007593  00000+0  18404-2 0  9997
2 34671  74.0318 123.0513 0018392 324.8815 104.9145 14.53006270801309
COSMOS 2251 DEB         
1 34672U 93036XS  24153.61040716  .00000897  00000+0  32389-3 0  9994
2 34672  74.0382 251.7764 0024094 103.1536 319.9910 14.34881627571535
COSMOS 2251 DEB         
1 34674U 93036XU  24152.43137285  .00022752  00000+0  22344-2 0  9996
2 34674  73.9709 182.4386 0074365 273.0400  86.2273 14.90019238810301
COSMOS 2251 DEB         
1 34675U 93036XV  24148.98347696  .00018433  00000+0  25519-2 0  9999
2 34675  74.0225  25.2700 0023730 210.5500 149.4295 14.77803002804447
COSMOS 2251 DEB         
1 34678U 93036XY  24153.49005341  .00000099  00000+0  48350-4 0  9991
2 34678  74.0369 302.2865 0024705 129.7497 301.9268 14.29891123793853
COSMOS 2251 DEB         
1 34680U 93036YA  24151.86382494  .00005022  00000+0  12651-2 0  9994
2 34680  74.0463 113.6044 0009729 321.5918  66.6620 14.51366012801905
COSMOS 2251 DEB         
1 34681U 93036YB  24153.48823080  .00009708  00000+0  17278-2 0  9991
2 34681  74.0696 302.2597 0035936 150.7595 271.9404 14.66766249810223
