OBJECT_NAME,OBJECT_ID,EPOCH,MEAN_MOTION,ECCENTRICITY,INCLINATION,RA_OF_ASC_NODE,ARG_OF_PERICENTER,MEAN_ANOMALY,EPHEMERIS_TYPE,CLASSIFICATION_TYPE,NORAD_CAT_ID,ELEMENT_SET_NO,REV_AT_EPOCH,BSTAR,MEAN_MOTION_DOT,MEAN_MOTION_DDOT
COSMOS 2251 DEB,1993-036VP,2024-06-01T13:38:18.901248,14.77812848,0.0020774,74.0324,232.2806,148.911,211.3299,0,U,34577,999,81105,0.0020281,0.00014622,0
COSMOS 2251 DEB,1993-036VR,2024-05-31T03:25:02.202240,14.41963572,0.0027935,74.053,185.1486,31.233,24.811,0,U,34579,999,80083,0.00050613,1.641e-05,0
COSMOS 2251 DEB,1993-036VU,2024-06-01T07:07:09.937056,14.39059887,0.0050905,74.0212,229.6617,115.7727,244.8693,0,U,34582,999,79886,0.00073079,2.267e-05,0
COSMOS 2251 DEB,1993-036WA,2024-06-01T15:06:50.176224,14.38949172,0.0018938,74.0438,222.0598,52.3309,70.7934,0,U,34588,999,79898,0.000468,1.42e-05,0
COSMOS 2251 DEB,1993-036WB,2024-05-30T11:02:16.977408,13.8439553,0.0255246,73.9258,291.2425,345.5481,70.2318,0,U,34589,999,76939,0.00057523,8.04e-06,0
COSMOS 2251 DEB,1993-036WC,2024-05-31T21:17:11.973696,14.5346031,0.0071447,74.0436,300.6286,212.5338,303.6276,0,U,34590,999,80982,0.00022648,9.46e-06,0
COSMOS 2251 DEB,1993-036WE,2024-06-01T03:40:18.545952,14.18012749,0.0149762,73.7366,46.5977,355.3654,155.4439,0,U,34609,999,78688,0.0011191,2.534e-05,0
COSMOS 2251 DEB,1993-036WF,2024-05-30T10:32:47.819040,14.01693253,0.0192346,74.0207,162.8069,60.653,301.3664,0,U,34610,999,77678,0.0020115,3.564e-05,0
COSMOS 2251 DEB,1993-036WG,2024-06-01T07:33:34.640928,14.56026572,0.0034236,74.0594,92.679,280.2745,247.714,0,U,34611,999,80208,0.0019591,8.676e-05,0
COSMOS 2251 DEB,1993-036WJ,2024-05-31T04:20:27.897216,14.19554566,0.0119276,73.9687,211.4031,166.5313,226.094,0,U,34613,999,78487,0.0023899,5.39e-05,0
COSMOS 2251 DEB,1993-036WK,2024-06-01T07:54:31.889664,14.00507099,0.0241849,73.8818,258.2652,4.5575,55.893,0,U,34614,999,76882,0.0027174,5.177e-05,0
COSMOS 2251 DEB,1993-036WL,2024-06-01T08:06:41.052096,13.50759787,0.04039,74.0037,110.3438,132.0269,18.959,0,U,34615,999,75257,0.00060956,6.35e-06,0
COSMOS 2251 DEB,1993-036WQ,2024-06-01T04:22:02.474112,14.61763873,0.0096446,74.0458,193.0378,71.4029,289.7583,0,U,34619,999,81113,0.00026326,1.371e-05,0
COSMOS 2251 DEB,1993-036WR,2024-05-31T17:47:24.025056,14.31998118,0.0109189,74.0603,175.665,350.4182,9.4883,0,U,34620,999,78799,0.0043808,0.0001255,0
COSMOS 2251 DEB,1993-036WT,2024-06-01T05:07:47.690688,14.18016351,0.0112987,74.0432,228.059,84.5012,309.1991,0,U,34622,999,78516,0.00080823,1.74e-05,0
COSMOS 2251 DEB,1993-036WX,2024-06-01T13:19:37.596864,14.61791181,0.0034712,74.0545,323.0066,197.5551,224.0249,0,U,34626,999,80941,0.0010961,5.492e-05,0
COSMOS 2251 DEB,1993-036XF,2024-06-01T14:02:14.307648,14.52184199,0.0048879,74.0535,11.0125,258.4872,130.1605,0,U,34634,999,80654,0.00035131,1.418e-05,0
COSMOS 2251 DEB,1993-036XG,2024-06-01T05:55:01.145856,14.5623426,0.0039848,74.0514,62.4347,270.6834,253.8603,0,U,34635,999,65038,0.0011793,5.246e-05,0
COSMOS 2251 DEB,1993-036XJ,2024-06-01T01:52:53.700384,14.52268676,0.0059863,74.053,82.5052,292.5858,78.1755,0,U,34637,999,80378,0.001074,4.44e-05,0
COSMOS 2251 DEB,1993-036XK,2024-06-01T14:31:42.093120,14.92337068,0.0014716,74.0297,330.9507,135.841,320.3925,0,U,34638,999,80710,0.0046593,0.00048036,0
COSMOS 2251 DEB,1993-036XL,2024-05-31T23:24:35.279712,14.89877366,0.002957,74.0198,19.0844,196.3869,225.4908,0,U,34639,999,80468,0.0045248,0.0004411,0
COSMOS 2251 DEB,1993-036XN,2024-06-01T04:19:07.785408,14.45016084,0.0017782,73.8424,63.2258,101.2294,49.0495,0,U,34641,999,80151,0.0010348,3.593e-05,0
COSMOS 2251 DEB,1993-036XP,2024-06-01T12:54:28.253664,13.94873836,0.0217249,74.0062,225.5158,167.7278,258.0352,0,U,34642,999,77483,0.0017065,2.767e-05,0
COSMOS 2251 DEB,1993-036XR,2024-06-01T07:26:18.080736,14.5300627,0.0018392,74.0318,123.0513,324.8815,104.9145,0,U,34671,999,80130,0.0018404,7.593e-05,0
COSMOS 2251 DEB,1993-036XS,2024-06-01T14:38:59.178624,14.34881627,0.0024094,74.0382,251.7764,103.1536,319.991,0,U,34672,999,57153,0.00032389,8.97e-06,0
COSMOS 2251 DEB,1993-036XU,2024-05-31T10:21:10.614240,14.90019238,0.0074365,73.9709,182.4386,273.04,86.2273,0,U,34674,999,81030,0.0022344,0.00022752,0
COSMOS 2251 DEB,1993-036XV,2024-05-27T23:36:12.409344,14.77803002,0.002373,74.0225,25.27,210.55,149.4295,0,U,34675,999,80444,0.0025519,0.00018433,0
COSMOS 2251 DEB,1993-036XY,2024-06-01T11:45:40.614624,14.29891123,0.0024705,74.0369,302.2865,129.7497,301.9268,0,U,34678,999,79385,4.835e-05,9.9e-07,0
COSMOS 2251 DEB,1993-036YA,2024-05-30T20:43:54.474816,14.51366012,0.0009729,74.0463,113.6044,321.5918,66.662,0,U,34680,999,80190,0.0012651,5.022e-05,0
COSMOS 2251 DEB,1993-036YB,2024-06-01T11:43:03.141120,14.66766249,0.0035936,74.0696,302.2597,150.7595,271.9404,0,U,34681,999,81022,0.0017278,9.708e-05,0
